[{"OBJECT_NAME":"STARLINK-3850","OBJECT_ID":"2022-045M","EPOCH":"2026-03-09T15:49:40.943424","MEAN_MOTION":15.08840838,"ECCENTRICITY":9.886e-5,"INCLINATION":53.2169,"RA_OF_ASC_NODE":199.376,"ARG_OF_PERICENTER":82.7055,"MEAN_ANOMALY":277.405,"EPHEMERIS_TYPE":0,"CLASSIFICATION_TYPE":"U","NORAD_CAT_ID":52342,"ELEMENT_SET_NO":999,"REV_AT_EPOCH":21577,"BSTAR":-0.00024579056,"MEAN_MOTION_DOT":-4.197e-5,"MEAN_MOTION_DDOT":0},{"OBJECT_NAME":"ELECTRON KICK STAGE R\/B","OBJECT_ID":"2023-035A","EPOCH":"2026-03-09T00:22:03.988416","MEAN_MOTION":15.09409521,"ECCENTRICITY":0.00017263,"INCLINATION":44.1756,"RA_OF_ASC_NODE":311.3301,"ARG_OF_PERICENTER":9.8979,"MEAN_ANOMALY":350.1918,"EPHEMERIS_TYPE":0,"CLASSIFICATION_TYPE":"U","NORAD_CAT_ID":55908,"ELEMENT_SET_NO":999,"REV_AT_EPOCH":16322,"BSTAR":0.00066616987,"MEAN_MOTION_DOT":0.00010608,"MEAN_MOTION_DDOT":0}]
